CORAL                   
1 67685U 98067YB  26063.31409248  .00057704  00000+0  95212-3 0  9994
2 67685  51.6305  98.5128 0011399 164.0725 196.0625 15.51642058  3958
ISS OBJECT YC           
1 67686U 98067YC  26063.31023200  .00070087  00000+0  11372-2 0  9998
2 67686  51.6308  98.4887 0007745 132.0357 228.1293 15.52065011  3956
LEOPARD                 
1 67687U 98067YD  26063.31561112  .00056781  00000+0  94368-3 0  9990
2 67687  51.6306  98.5236 0007781 136.2386 223.9221 15.51484974  3879
ISS OBJECT YE           
1 67688U 98067YE  26063.50513603  .00064836  00000+0  10599-2 0  9997
2 67688  51.6315  97.5383 0007786 134.7310 225.4314 15.51890022  3906
PRC TEST SPACECRAFT 4   
1 67689U 26024A   26063.53606183  .00000242  00000+0  47806-4 0  9995
2 67689  49.9859  46.9636 0006107 340.3339  19.7366 14.91683594  3819
CZ-2F R/B               
1 67690U 26024B   26063.42735707  .00026077  00000+0  47594-3 0  9997
2 67690  49.9873  40.9872 0174982 253.0719 105.0993 15.34091462  3889
CZ-2F DEB               
1 67691U 26024C   26063.35535619  .01283344  10949-4  80769-3 0  9992
2 67691  49.9035  33.3410 0155308 266.9758  91.3445 15.95791008  3969
CZ-2F DEB               
1 67692U 26024D   26063.43143931  .00286342  00000+0  51026-2 0  9999
2 67692  50.3181  44.4990 0239218 259.3456  98.0484 15.23201021  3822
STARLINK-36748          
1 67693U 26025A   26063.26912985  .00293378  00000+0  18926-2 0  9994
2 67693  97.2840 174.5329 0001538   5.6342 354.4940 15.75292619  5080
STARLINK-36753          
1 67694U 26025B   26063.26136714  .00193167  00000+0  12626-2 0  9999
2 67694  97.2835 174.5429 0000906  77.4971 282.6395 15.75268356  5097
STARLINK-36750          
1 67695U 26025C   26063.29906123  .00133752  00000+0  68688-3 0  9996
2 67695  97.2845 174.6474 0001414  50.5839 309.5554 15.80863143  5097
STARLINK-36401          
1 67696U 26025D   26063.24760438  .00639434  00000+0  39320-2 0  9997
2 67696  97.2843 174.5627 0000903 140.4536 219.6795 15.75440876  5085
