CCSDS_OMM_VERS = 2.0
CREATION_DATE  = 
ORIGINATOR     = 

OBJECT_NAME    = CORAL
OBJECT_ID      = 1998-067YB
CENTER_NAME    = EARTH
REF_FRAME      = TEME
TIME_SYSTEM    = UTC
MEAN_ELEMENT_THEORY = SGP/SGP4

EPOCH          = 2026-03-04T07:32:17.590272
MEAN_MOTION    = 15.51642058
ECCENTRICITY   = .0011399
INCLINATION    = 51.6305
RA_OF_ASC_NODE = 98.5128
ARG_OF_PERICENTER = 164.0725
MEAN_ANOMALY   = 196.0625

EPHEMERIS_TYPE = 0
CLASSIFICATION_TYPE = U
NORAD_CAT_ID   = 67685
ELEMENT_SET_NO = 999
REV_AT_EPOCH   = 395
BSTAR          = .95212E-3
MEAN_MOTION_DOT = .57704E-3
MEAN_MOTION_DDOT = 0

CCSDS_OMM_VERS = 2.0
CREATION_DATE  = 
ORIGINATOR     = 

OBJECT_NAME    = ISS OBJECT YC
OBJECT_ID      = 1998-067YC
CENTER_NAME    = EARTH
REF_FRAME      = TEME
TIME_SYSTEM    = UTC
MEAN_ELEMENT_THEORY = SGP/SGP4

EPOCH          = 2026-03-04T07:26:44.044800
MEAN_MOTION    = 15.52065011
ECCENTRICITY   = .0007745
INCLINATION    = 51.6308
RA_OF_ASC_NODE = 98.4887
ARG_OF_PERICENTER = 132.0357
MEAN_ANOMALY   = 228.1293

EPHEMERIS_TYPE = 0
CLASSIFICATION_TYPE = U
NORAD_CAT_ID   = 67686
ELEMENT_SET_NO = 999
REV_AT_EPOCH   = 395
BSTAR          = .11372E-2
MEAN_MOTION_DOT = .70087E-3
MEAN_MOTION_DDOT = 0

CCSDS_OMM_VERS = 2.0
CREATION_DATE  = 
ORIGINATOR     = 

OBJECT_NAME    = LEOPARD
OBJECT_ID      = 1998-067YD
CENTER_NAME    = EARTH
REF_FRAME      = TEME
TIME_SYSTEM    = UTC
MEAN_ELEMENT_THEORY = SGP/SGP4

EPOCH          = 2026-03-04T07:34:28.800768
MEAN_MOTION    = 15.51484974
ECCENTRICITY   = .0007781
INCLINATION    = 51.6306
RA_OF_ASC_NODE = 98.5236
ARG_OF_PERICENTER = 136.2386
MEAN_ANOMALY   = 223.9221

EPHEMERIS_TYPE = 0
CLASSIFICATION_TYPE = U
NORAD_CAT_ID   = 67687
ELEMENT_SET_NO = 999
REV_AT_EPOCH   = 387
BSTAR          = .94368E-3
MEAN_MOTION_DOT = .56781E-3
MEAN_MOTION_DDOT = 0

CCSDS_OMM_VERS = 2.0
CREATION_DATE  = 
ORIGINATOR     = 

OBJECT_NAME    = ISS OBJECT YE
OBJECT_ID      = 1998-067YE
CENTER_NAME    = EARTH
REF_FRAME      = TEME
TIME_SYSTEM    = UTC
MEAN_ELEMENT_THEORY = SGP/SGP4

EPOCH          = 2026-03-04T12:07:23.752992
MEAN_MOTION    = 15.51890022
ECCENTRICITY   = .0007786
INCLINATION    = 51.6315
RA_OF_ASC_NODE = 97.5383
ARG_OF_PERICENTER = 134.7310
MEAN_ANOMALY   = 225.4314

EPHEMERIS_TYPE = 0
CLASSIFICATION_TYPE = U
NORAD_CAT_ID   = 67688
ELEMENT_SET_NO = 999
REV_AT_EPOCH   = 390
BSTAR          = .10599E-2
MEAN_MOTION_DOT = .64836E-3
MEAN_MOTION_DDOT = 0

CCSDS_OMM_VERS = 2.0
CREATION_DATE  = 
ORIGINATOR     = 

OBJECT_NAME    = PRC TEST SPACECRAFT 4
OBJECT_ID      = 2026-024A
CENTER_NAME    = EARTH
REF_FRAME      = TEME
TIME_SYSTEM    = UTC
MEAN_ELEMENT_THEORY = SGP/SGP4

EPOCH          = 2026-03-04T12:51:55.742112
MEAN_MOTION    = 14.91683594
ECCENTRICITY   = .0006107
INCLINATION    = 49.9859
RA_OF_ASC_NODE = 46.9636
ARG_OF_PERICENTER = 340.3339
MEAN_ANOMALY   = 19.7366

EPHEMERIS_TYPE = 0
CLASSIFICATION_TYPE = U
NORAD_CAT_ID   = 67689
ELEMENT_SET_NO = 999
REV_AT_EPOCH   = 381
BSTAR          = .47806E-4
MEAN_MOTION_DOT = .242E-5
MEAN_MOTION_DDOT = 0

CCSDS_OMM_VERS = 2.0
CREATION_DATE  = 
ORIGINATOR     = 

OBJECT_NAME    = CZ-2F R/B
OBJECT_ID      = 2026-024B
CENTER_NAME    = EARTH
REF_FRAME      = TEME
TIME_SYSTEM    = UTC
MEAN_ELEMENT_THEORY = SGP/SGP4

EPOCH          = 2026-03-04T10:15:23.650848
MEAN_MOTION    = 15.34091462
ECCENTRICITY   = .0174982
INCLINATION    = 49.9873
RA_OF_ASC_NODE = 40.9872
ARG_OF_PERICENTER = 253.0719
MEAN_ANOMALY   = 105.0993

EPHEMERIS_TYPE = 0
CLASSIFICATION_TYPE = U
NORAD_CAT_ID   = 67690
ELEMENT_SET_NO = 999
REV_AT_EPOCH   = 388
BSTAR          = .47594E-3
MEAN_MOTION_DOT = .26077E-3
MEAN_MOTION_DDOT = 0

CCSDS_OMM_VERS = 2.0
CREATION_DATE  = 
ORIGINATOR     = 

OBJECT_NAME    = CZ-2F DEB
OBJECT_ID      = 2026-024C
CENTER_NAME    = EARTH
REF_FRAME      = TEME
TIME_SYSTEM    = UTC
MEAN_ELEMENT_THEORY = SGP/SGP4

EPOCH          = 2026-03-04T08:31:42.774816
MEAN_MOTION    = 15.95791008
ECCENTRICITY   = .0155308
INCLINATION    = 49.9035
RA_OF_ASC_NODE = 33.3410
ARG_OF_PERICENTER = 266.9758
MEAN_ANOMALY   = 91.3445

EPHEMERIS_TYPE = 0
CLASSIFICATION_TYPE = U
NORAD_CAT_ID   = 67691
ELEMENT_SET_NO = 999
REV_AT_EPOCH   = 396
BSTAR          = .80769E-3
MEAN_MOTION_DOT = .1283344E-1
MEAN_MOTION_DDOT = .10949E-4

CCSDS_OMM_VERS = 2.0
CREATION_DATE  = 
ORIGINATOR     = 

OBJECT_NAME    = CZ-2F DEB
OBJECT_ID      = 2026-024D
CENTER_NAME    = EARTH
REF_FRAME      = TEME
TIME_SYSTEM    = UTC
MEAN_ELEMENT_THEORY = SGP/SGP4

EPOCH          = 2026-03-04T10:21:16.356384
MEAN_MOTION    = 15.23201021
ECCENTRICITY   = .0239218
INCLINATION    = 50.3181
RA_OF_ASC_NODE = 44.4990
ARG_OF_PERICENTER = 259.3456
MEAN_ANOMALY   = 98.0484

EPHEMERIS_TYPE = 0
CLASSIFICATION_TYPE = U
NORAD_CAT_ID   = 67692
ELEMENT_SET_NO = 999
REV_AT_EPOCH   = 382
BSTAR          = .51026E-2
MEAN_MOTION_DOT = .286342E-2
MEAN_MOTION_DDOT = 0

CCSDS_OMM_VERS = 2.0
CREATION_DATE  = 
ORIGINATOR     = 

OBJECT_NAME    = STARLINK-36748
OBJECT_ID      = 2026-025A
CENTER_NAME    = EARTH
REF_FRAME      = TEME
TIME_SYSTEM    = UTC
MEAN_ELEMENT_THEORY = SGP/SGP4

EPOCH          = 2026-03-04T06:27:32.819040
MEAN_MOTION    = 15.75292619
ECCENTRICITY   = .0001538
INCLINATION    = 97.2840
RA_OF_ASC_NODE = 174.5329
ARG_OF_PERICENTER = 5.6342
MEAN_ANOMALY   = 354.4940

EPHEMERIS_TYPE = 0
CLASSIFICATION_TYPE = U
NORAD_CAT_ID   = 67693
ELEMENT_SET_NO = 999
REV_AT_EPOCH   = 508
BSTAR          = .18926E-2
MEAN_MOTION_DOT = .293378E-2
MEAN_MOTION_DDOT = 0

CCSDS_OMM_VERS = 2.0
CREATION_DATE  = 
ORIGINATOR     = 

OBJECT_NAME    = STARLINK-36753
OBJECT_ID      = 2026-025B
CENTER_NAME    = EARTH
REF_FRAME      = TEME
TIME_SYSTEM    = UTC
MEAN_ELEMENT_THEORY = SGP/SGP4

EPOCH          = 2026-03-04T06:16:22.120896
MEAN_MOTION    = 15.75268356
ECCENTRICITY   = .0000906
INCLINATION    = 97.2835
RA_OF_ASC_NODE = 174.5429
ARG_OF_PERICENTER = 77.4971
MEAN_ANOMALY   = 282.6395

EPHEMERIS_TYPE = 0
CLASSIFICATION_TYPE = U
NORAD_CAT_ID   = 67694
ELEMENT_SET_NO = 999
REV_AT_EPOCH   = 509
BSTAR          = .12626E-2
MEAN_MOTION_DOT = .193167E-2
MEAN_MOTION_DDOT = 0

CCSDS_OMM_VERS = 2.0
CREATION_DATE  = 
ORIGINATOR     = 

OBJECT_NAME    = STARLINK-36750
OBJECT_ID      = 2026-025C
CENTER_NAME    = EARTH
REF_FRAME      = TEME
TIME_SYSTEM    = UTC
MEAN_ELEMENT_THEORY = SGP/SGP4

EPOCH          = 2026-03-04T07:10:38.890272
MEAN_MOTION    = 15.80863143
ECCENTRICITY   = .0001414
INCLINATION    = 97.2845
RA_OF_ASC_NODE = 174.6474
ARG_OF_PERICENTER = 50.5839
MEAN_ANOMALY   = 309.5554

EPHEMERIS_TYPE = 0
CLASSIFICATION_TYPE = U
NORAD_CAT_ID   = 67695
ELEMENT_SET_NO = 999
REV_AT_EPOCH   = 509
BSTAR          = .68688E-3
MEAN_MOTION_DOT = .133752E-2
MEAN_MOTION_DDOT = 0

CCSDS_OMM_VERS = 2.0
CREATION_DATE  = 
ORIGINATOR     = 

OBJECT_NAME    = STARLINK-36401
OBJECT_ID      = 2026-025D
CENTER_NAME    = EARTH
REF_FRAME      = TEME
TIME_SYSTEM    = UTC
MEAN_ELEMENT_THEORY = SGP/SGP4

EPOCH          = 2026-03-04T05:56:33.018432
MEAN_MOTION    = 15.75440876
ECCENTRICITY   = .0000903
INCLINATION    = 97.2843
RA_OF_ASC_NODE = 174.5627
ARG_OF_PERICENTER = 140.4536
MEAN_ANOMALY   = 219.6795

EPHEMERIS_TYPE = 0
CLASSIFICATION_TYPE = U
NORAD_CAT_ID   = 67696
ELEMENT_SET_NO = 999
REV_AT_EPOCH   = 508
BSTAR          = .3932E-2
MEAN_MOTION_DOT = .639434E-2
MEAN_MOTION_DDOT = 0

